KUIPER-00062            
1 64522U 25134Y   26062.55517236  .00001238  00000+0  19131-3 0  9995
2 64522  51.8942 257.7516 0000722 158.0929 202.0065 14.79936806 39200
KUIPER-00063            
1 64523U 25134Z   26062.00782163  .00004063  00000+0  56918-3 0  9992
2 64523  51.9014 267.6547 0001012  97.4432 262.6646 14.79357347 39017
KUIPER-00064            
1 64524U 25134AA  26061.87452285 -.00006344  00000+0 -80371-3 0  9992
2 64524  51.9019 265.6573 0000772  78.0299 282.0750 14.79943235 39039
KUIPER-00065            
1 64525U 25134AB  26062.00353662  .00004096  00000+0  57507-3 0  9993
2 64525  51.9022 270.2378 0001412 207.5333 152.5554 14.79254283 38961
KUIPER-00066            
1 64526U 25134AC  26062.59988686  .00025966  00000+0  10955-2 0  9992
2 64526  51.8727 212.8194 0001590 273.8755  86.2044 15.23121012 39839
KUIPER-00069            
1 64816U 25151A   26062.63639365  .00005777  00000+0  78597-3 0  9990
2 64816  51.9026 307.3913 0000719 103.9535 256.1508 14.79941122 35868
KUIPER-00070            
1 64817U 25151B   26061.96788551  .00006016  00000+0  81824-3 0  9992
2 64817  51.9013 335.2853 0000915  92.7563 267.3504 14.79891797 35426
KUIPER-00071            
1 64818U 25151C   26062.17299931  .00006321  00000+0  85587-3 0  9995
2 64818  51.9024 331.8978 0000605 230.8920 129.1989 14.80006353 34303
KUIPER-00072            
1 64819U 25151D   26062.09344731  .00005929  00000+0  80534-3 0  9996
2 64819  51.8988 312.2379 0001308  83.3370 276.7741 14.79968521 34577
KUIPER-00073            
1 64820U 25151E   26062.13942111 -.00000961  00000+0 -97125-4 0  9997
2 64820  51.9025 332.0413 0001011 103.1810 256.9265 14.79930170 35483
KUIPER-00074            
1 64821U 25151F   26062.58336806  .00466078  00000+0  39490-1 0  9996
2 64821  51.9041 317.2360 0000604 222.7128  99.5059 14.95343849  3559
KUIPER-00075            
1 64822U 25151G   26062.55311919  .00058811  00000+0  13768-2 0  9995
2 64822  51.8694 251.6521 0004892 267.1340  92.9089 15.41542888 35455
KUIPER-00076            
1 64823U 25151H   26062.14205835  .00005826  00000+0  78313-3 0  9996
2 64823  51.9028 321.9563 0000340 347.2502  12.8452 14.80444302 34446
KUIPER-00077            
1 64824U 25151J   26061.94124986  .00005794  00000+0  78503-3 0  9996
2 64824  51.9027 327.9313 0001149 182.6871 177.4085 14.80117002 34346
KUIPER-00078            
1 64825U 25151K   26061.97868102  .00002951  00000+0  41594-3 0  9997
2 64825  51.9023 325.2638 0000750  94.6443 265.4606 14.79935717 34388
KUIPER-00079            
1 64826U 25151L   26062.14198747  .00000142  00000+0  47685-4 0  9997
2 64826  51.9014 329.5173 0001125  91.2498 268.8593 14.79941245 35533
